GLOBALSTAR M068 [-]     
1 32266U 07048D   23319.63444458 -.00000056  00000+0  26528-3 0  9991
2 32266  51.9887 268.8459 0000861 350.0186 181.7008 12.62771268744629
GLOBALSTAR M079 [+]     
1 37188U 10054A   23319.80660053 -.00000115  00000+0 -63098-4 0  9991
2 37188  52.0021 103.5116 0001118 106.9261  40.6616 12.62269899603963
GLOBALSTAR M074 [+]     
1 37189U 10054B   23319.72433426 -.00000117  00000+0 -72838-4 0  9999
2 37189  51.9998 103.1735 0000887 109.8029 264.3626 12.62271936603954
GLOBALSTAR M076 [+]     
1 37190U 10054C   23319.43482742 -.00000114  00000+0 -59750-4 0  9999
2 37190  52.0011 104.1749 0001294 128.9863 247.8737 12.62263825603565
GLOBALSTAR M077 [+]     
1 37191U 10054D   23319.51553576 -.00000104  00000+0 -29154-5 0  9998
2 37191  52.0078  60.6190 0000632 121.9676 321.0901 12.62266376603949
GLOBALSTAR M075 [+]     
1 37192U 10054E   23319.00576984 -.00000104  00000+0 -36183-5 0  9991
2 37192  51.9923 148.0652 0001112  90.0194  74.8678 12.62267526602734
GLOBALSTAR M073 [+]     
1 37193U 10054F   23319.46146558 -.00000108  00000+0 -21029-4 0  9998
2 37193  52.0065  60.0486 0000730 118.7902 319.7315 12.62269209604621
GLOBALSTAR M083 [+]     
1 37739U 11033A   23319.48061978 -.00000088  00000+0  86489-4 0  9993
2 37739  51.9884   9.5154 0000499  78.3405  28.3559 12.62262842573641
GLOBALSTAR M088 [+]     
1 37740U 11033B   23319.30493203 -.00000092  00000+0  63306-4 0  9994
2 37740  51.9738 276.0308 0000871  56.8874  90.5612 12.62267456569167
GLOBALSTAR M091 [+]     
1 37741U 11033C   23319.24283650 -.00000068  00000+0  20019-3 0  9997
2 37741  51.9996 238.7385 0001127  62.4421 101.9140 12.62268486569943
GLOBALSTAR M085 [+]     
1 37742U 11033D   23319.07156449 -.00000069  00000+0  19642-3 0  9995
2 37742  51.9854 190.8124 0001224  73.2736  92.8622 12.62265242570439
GLOBALSTAR M081 [+]     
1 37743U 11033E   23319.08713495 -.00000061  00000+0  24021-3 0  9996
2 37743  51.9945 193.1940 0001320  80.5439  36.3849 12.62266850570587
GLOBALSTAR M089 [+]     
1 37744U 11033F   23318.78708862 -.00000092  00000+0  67345-4 0  9996
2 37744  51.9905 148.4435 0001016 106.3365 266.5327 12.62269665571398
GLOBALSTAR M084 [+]     
1 38040U 11080A   23319.86502328 -.00000085  00000+0  10703-3 0  9994
2 38040  52.0034  12.1431 0000438 148.3097  24.2154 12.62267674549784
GLOBALSTAR M080 [+]     
1 38041U 11080B   23319.34304789 -.00000084  00000+0  11129-3 0  9991
2 38041  52.0086  15.1349 0000678 148.2340 291.2676 12.62266110549564
GLOBALSTAR M082 [+]     
1 38042U 11080C   23319.45021347 -.00000091  00000+0  69680-4 0  9994
2 38042  52.0092 330.1932 0000786  22.5326 125.3936 12.62267975550285
GLOBALSTAR M092 [+]     
1 38043U 11080D   23319.48814373 -.00000103  00000+0  63102-5 0  9995
2 38043  52.0097  60.4185 0000541 155.4111 285.6435 12.62262615548749
GLOBALSTAR M090 [+]     
1 38044U 11080E   23319.22406133 -.00000090  00000+0  78862-4 0  9992
2 38044  51.9899 325.4362 0000567  46.6197  33.9623 12.62263489550377
GLOBALSTAR M086 [+]     
1 38045U 11080F   23319.42375269 -.00000088  00000+0  86400-4 0  9994
2 38045  51.9911 325.3357 0001242 101.8484  45.5733 12.62264301550342
GLOBALSTAR M097 [+]     
1 39072U 13005A   23319.18024543 -.00000077  00000+0  14777-3 0  9998
2 39072  52.0045 240.0340 0001097  63.1234 296.9745 12.62272542497564
GLOBALSTAR M093 [+]     
1 39073U 13005B   23319.23295093 -.00000065  00000+0  21710-3 0  9997
2 39073  51.9809 234.1051 0001357  65.3100 294.7908 12.62268830497527
GLOBALSTAR M094 [+]     
1 39074U 13005C   23318.99544793 -.00000094  00000+0  56083-4 0  9998
2 39074  51.9934 148.6303 0001234  90.7968 269.3040 12.62269938499105
GLOBALSTAR M096 [+]     
1 39075U 13005D   23319.08786155 -.00000061  00000+0  24094-3 0  9990
2 39075  52.0061 196.4114 0001313  74.3881 285.7130 12.62266305498038
GLOBALSTAR M078 [+]     
1 39076U 13005E   23319.21967040 -.00000075  00000+0  16217-3 0  9993
2 39076  51.9877 281.3066 0001154   3.6332 356.4543 12.62263265496675
GLOBALSTAR M095 [+]     
1 39077U 13005F   23319.24618826 -.00000094  00000+0  54127-4 0  9996
2 39077  51.9802 278.7115 0001158  32.5302 327.5635 12.62270610496539
GLOBALSTAR M087 [+]     
1 52888U 22064A   23319.20462469 -.00000071  00000+0  10865-3 0  9997
2 52888  51.9757 238.0053 0009226 174.4306 185.6699 13.37557951 68758
